HAWK-2C                 
1 47502U 21006CT  26068.67595434  .00008129  00000+0  25493-3 0  9997
2 47502  97.2417 114.9961 0006943 184.0877 176.0310 15.33286436284247
STARLINK-35862          
1 66628U 25271M   26068.47758524  .00017463  00000+0  60039-3 0  9990
2 66628  53.1564 140.9573 0000793  90.6009 269.5083 15.30197618 17536
